# Made by eph2tle, compiled Apr 13 2020 21:44:33
# Run at Mon Apr 13 22:06:30 2020
#
# No updates
#
#    The following TLEs (Two-Line Elements) were generated by fitting
# a numerically-integrated ephemeris,  based on the orbit given below,
# to the SDP4/SGP4 models.  Each TLE is good for the interval between
# its epoch and the epoch of the subsequent TLE (usually one day).
# The maximum deviation between the numerically integrated ephemerides
# and the TLE-based ephemeris, in kilometers,  is given for each TLE
# as the "worst residual".
#
#    This fitting is done using the 'eph2tle' code packaged with Find_Orb.
# The code has details on how the TLEs were computed :
#
#    https://github.com/Bill-Gray/find_orb/eph2tle.cpp
#
#    Be warned:  the error given is that between the numerically
# integrated ephems and the TLE model.  There will usually be at
# least some additional difference between the ephems and the actual
# motion of the satellite,  especially if the ephemerides are based
# on a short arc.  If the following orbital elements say something
# like "[based on] 10 observations 2015 Jan. 1-13",  and the TLEs
# are for 2015 May,  the extrapolation may be tenuous at best.  If
# your application requires a specific level of accuracy,  you may
# want to contact me;  I can give you some idea as to the fit of the
# underlying data (and possibly TLEs based on newer data).
#
#   You can usually find the underlying observational data,  and the
# fitted orbit,  residuals,  ephemerides,  and sometimes some comments
# about the object,  among the pages listed at
#
#    https://www.projectpluto.com/pluto/mpecs/pseudo.htm
#
#    WARNING:  for this object,  "normal" TLEs cannot be fitted.  (This
# usually means an object with an hyperbolic or nearly-parabolic orbit.)
# For this and similar cases,   an alternative model is used,  in which
# most of the traditional TLE data is replaced by six signed 8-digit base-36
# numbers.  These six numbers are a state vector,  numerically integrated
# using a simplified force model.  This is necessary for objects at L2 or
# L1,  and sometimes for objects in high orbits where the SDP4/SGP4 model
# fails.  I've posted source code for this.  But be aware:  it's my
# own extension,  doesn't work with other code,  and is therefore used
# only when necessary.
#
#    Also,  if you use a TLE outside the "correct" time range (between
# its MJD and that of the next TLE),  all bets are off.  I've carefully
# computed and minimized the worst error over the "correct" time frame,
# but the ephemeris may (or may not) diverge wildly outside of it.
#
# Ephem range: 58948.000000 59001.000000 1.000000
# Created Mon Apr 13 21:20:34 2020
# Ephemeris start:  9 Apr 2020  0:00:00
# Ephemeris end:    1 Jun 2020  0:00:00
# Times are all TDT
# Positions/velocities are in equatorial J2000
# Orbital elements:  2020 GL2
#    Perihelion 2019 Dec 14.889046 +/- 0.00437 TT = 21:20:13 (JD 2458832.389046)
# Epoch 2020 Apr 13.0 TT = JDT 2458952.5   Earth MOID: 0.0001   Ve: 0.0010
# M 160.6667206156 +/- 0.00027        (J2000 ecliptic)          Find_Orb
# n   1.3376525224 +/- 4.68e-5        Peri.   14.7672227 +/- 0.00059
# a   0.8157814781 +/- 1.9e-5         Node    20.3646187 +/- 0.00007
# e   0.241254074 +/- 3.01e-5         Incl.    1.7189077 +/- 0.00026
# P   0.74/269.12d           H 26.2   G  0.15   U  6.1
# q 0.6189708722 +/- 3.9e-5    Q 1.0125920840 +/- 9.04e-7
# From 43 observations 2020 Apr. 10-13; mean residual 0".363
#
# 1 NoradU COSPAR   Epoch.epoch     dn/dt/2  d2n/dt2/6 BSTAR    T El# C
# 2 NoradU Inclina RAAscNode Eccent  ArgPeri MeanAno  MeanMotion Rev# C

# Worst residual: 52.48 km
# MJD 58948.000000 (2020 Apr  9  0:00)
2020 GL2
1 43653U 18080A   20099.99919926 +0074JLAE +001XUGXW +001ZCGR0H  8352
2 43653                          -000MMWIG -00081HST -0006WD4G     05

# Worst residual: 28.61 km
# MJD 58949.000000 (2020 Apr 10  0:00)
2020 GL2
1 43653U 18080A   20100.99919926 +001F4WJD -0001IUJE +00098ELZH  8356
2 43653                          -000RD1F6 -0008L1SD -0007Z7M2     08

# Worst residual: 10.27 km
# MJD 58950.000000 (2020 Apr 11  0:00)
2020 GL2
1 43653U 18080A   20101.99919926 -004306D6 +003JMG0K +000DAL8RH  8354
2 43653                          -000HEXSS +000IE0PY +0002MR5C     01

# Worst residual: 6.82 km
# MJD 58951.000000 (2020 Apr 12  0:00)
2020 GL2
1 43653U 18080A   20102.99919926 -0085UQER +007V9D42 +000ZOFYOH  8350
2 43653                          -000GQUGS +000HS2PW +0002KAZA     08

# Worst residual: 1.65 km
# MJD 58952.000000 (2020 Apr 13  0:00)
2020 GL2
1 43653U 18080A   20103.99919926 -00C5JNCA +00C3VV6I +001LPQGOH  8351
2 43653                          -000GJNBY +000HKQ7V +0002JFRK     03

# Worst residual: 1.16 km
# MJD 58953.000000 (2020 Apr 14  0:00)
2020 GL2
1 43653U 18080A   20104.99919926 -00G42CR1 +00GB7XIM +0027LJQ0H  8350
2 43653                          -000GGE2C +000HGOXG +0002IYKB     08

# Worst residual: 1.26 km
# MJD 58954.000000 (2020 Apr 15  0:00)
2020 GL2
1 43653U 18080A   20105.99919926 -00K20O8U +00KHQR4M +002TDTS4H  8358
2 43653                          -000GEQAP +000HDRTS +0002ILFO     06

# Worst residual: 1.51 km
# MJD 58955.000000 (2020 Apr 16  0:00)
2020 GL2
1 43653U 18080A   20106.99919926 -00NZOISO +00ONMBME +003F31XTH  8356
2 43653                          -000GDVUP +000HB8HM +0002I8R1     03

# Worst residual: 1.77 km
# MJD 58956.000000 (2020 Apr 17  0:00)
2020 GL2
1 43653U 18080A   20107.99919926 -00RX78FR +00SSWEN5 +0040P3ZSH  8357
2 43653                          -000GDHYE +000H8RJ6 +0002HUU8     08

# Worst residual: 1.98 km
# MJD 58957.000000 (2020 Apr 18  0:00)
2020 GL2
1 43653U 18080A   20108.99919926 -00VUNUWV +00WXKTPO +004M7L71H  8350
2 43653                          -000GDDI8 +000H67AT +0002HETU     07

# Worst residual: 2.14 km
# MJD 58958.000000 (2020 Apr 19  0:00)
2020 GL2
1 43653U 18080A   20109.99919926 -00ZS42UJ +0111ME2H +0057LX3PH  8358
2 43653                          -000GDDXC +000H3GQT +0002GW8F     07

# Worst residual: 2.26 km
# MJD 58959.000000 (2020 Apr 20  0:00)
2020 GL2
1 43653U 18080A   20110.99919926 -013PKNAP +0154ZD1P +005SVG4GH  8358
2 43653                          -000GDFW1 +000H0I69 +0002GASF     02

# Worst residual: 2.37 km
# MJD 58960.000000 (2020 Apr 21  0:00)
2020 GL2
1 43653U 18080A   20111.99919926 -017N1LUM +0197LP2U +006DZH1BH  8350
2 43653                          -000GDGRG +000GXAOV +0002FMDJ     06

# Worst residual: 2.51 km
# MJD 58961.000000 (2020 Apr 22  0:00)
2020 GL2
1 43653U 18080A   20112.99919926 -01BKIF7Z +01D9F77D +006YXA1VH  8355
2 43653                          -000GDEBB +000GTTWY +0002EUZ8     04

# Worst residual: 2.67 km
# MJD 58962.000000 (2020 Apr 23  0:00)
2020 GL2
1 43653U 18080A   20113.99919926 -01FHY21K +01HADMVB +007JO5NTH  8354
2 43653                          -000GD6KN +000GQ3U8 +0002E0OA     03

# Worst residual: 2.83 km
# MJD 58963.000000 (2020 Apr 24  0:00)
2020 GL2
1 43653U 18080A   20114.99919926 -01JFB0RU +01LAESSX +00847FE5H  8354
2 43653                          -000GCRRC +000GM4RC +0002D3MJ     03

# Worst residual: 2.98 km
# MJD 58964.000000 (2020 Apr 25  0:00)
2020 GL2
1 43653U 18080A   20115.99919926 -01NCJF5W +01P9GLDX +008OIGJDH  8353
2 43653                          -000GC48V +000GHX7W +0002C42U     01

# Worst residual: 3.10 km
# MJD 58965.000000 (2020 Apr 26  0:00)
2020 GL2
1 43653U 18080A   20116.99919926 -01R9KZL9 +01T7H2PE +0098KOUXH  8356
2 43653                          -000GB6K9 +000GDHZM +0002B2CY     03

# Worst residual: 3.22 km
# MJD 58966.000000 (2020 Apr 27  0:00)
2020 GL2
1 43653U 18080A   20117.99919926 -01V6D4DI +01X4EID0 +009SDNAHH  8356
2 43653                          -000G9XE4 +000G8W1C +00029YVI     07

# Worst residual: 3.37 km
# MJD 58967.000000 (2020 Apr 28  0:00)
2020 GL2
1 43653U 18080A   20118.99919926 -01Z2SX73 +02107F3O +00ABWYMHH  8358
2 43653                          -000G8BL9 +000G44IB +00028U40     03

# Worst residual: 3.59 km
# MJD 58968.000000 (2020 Apr 29  0:00)
2020 GL2
1 43653U 18080A   20119.99919926 -022YT8NB +024UUMAM +00AV6E69H  8352
2 43653                          -000G6C7A +000FZ8PO +00027OMO     04

# Worst residual: 3.86 km
# MJD 58969.000000 (2020 Apr 30  0:00)
2020 GL2
1 43653U 18080A   20120.99919926 -026UAQ0H +028OB99J +00BE5UG2H  8358
2 43653                          -000G3YHY +000FUA3U +00026J2H     00

# Worst residual: 4.13 km
# MJD 58970.000000 (2020 May  1  0:00)
2020 GL2
1 43653U 18080A   20121.99919926 -02AP5VEB +02CGKUGW +00BWVDS5H  8350
2 43653                          -000G160N +000FPA9O +00025E52     04

# Worst residual: 4.32 km
# MJD 58971.000000 (2020 May  2  0:00)
2020 GL2
1 43653U 18080A   20122.99919926 -02EJB4B8 +02G7NAE9 +00CFB8XTH  8357
2 43653                          -000FXYMS +000FKAUV +00024AM6     06

# Worst residual: 4.37 km
# MJD 58972.000000 (2020 May  3  0:00)
2020 GL2
1 43653U 18080A   20123.99919926 -02ICMWUH +02JXIVXY +00CXHVITH  8352
2 43653                          -000FUCM5 +000FFDJ5 +000239AV     08

# Worst residual: 4.33 km
# MJD 58973.000000 (2020 May  4  0:00)
2020 GL2
1 43653U 18080A   20124.99919926 -02M51TCC +02NM8BW0 +00DFFW2MH  8359
2 43653                          -000FQCOI +000FAJTK +00022AZI     08

# Worst residual: 4.30 km
# MJD 58974.000000 (2020 May  5  0:00)
2020 GL2
1 43653U 18080A   20125.99919926 -02PWGM7O +02R9SN2F +00DX63M2H  8353
2 43653                          -000FLZYY +000F5UYF +00021GD8     00

# Worst residual: 4.42 km
# MJD 58975.000000 (2020 May  6  0:00)
2020 GL2
1 43653U 18080A   20126.99919926 -02TMSF5H +02UW92ZY +00EEPGH2H  8353
2 43653                          -000FHBXB +000F1BOX +00020PYO     07

# Worst residual: 4.71 km
# MJD 58976.000000 (2020 May  7  0:00)
2020 GL2
1 43653U 18080A   20127.99919926 -02XBYORE +02YHN1A4 +00EW30FBH  8354
2 43653                          -000FCE1L +000EWY7J +0002041I     09

